name,Famous_for,Address,Hear_the_story,latitude,longitude,DIID
Bedgebury Forest,temp,temp,temp,51.07335162,0.447558908,temp
Belton House,temp,temp,temp,52.94384874,-0.617689699,temp
Blenheim Palace,temp,temp,temp,51.84202754,-1.360757454,temp
Dunham Massey Hall,temp,temp,temp,53.38304784,-2.400221299,temp
Eden Project,temp,temp,temp,50.36311821,-4.745447393,temp
Fountains Abbey,temp,temp,temp,54.11011548,-1.581731283,temp
Gibside,temp,temp,temp,54.92533428,-1.726835586,temp
Harlow Carr,temp,temp,temp,53.98231251,-1.572365845,temp
Heaton Park,temp,temp,temp,53.53745793,-2.254494073,temp
Helmingham Hall,temp,temp,temp,52.17465214,1.196484893,temp
Kingston Lacy,temp,temp,temp,50.81321148,-2.032267688,temp
Longleat,temp,temp,temp,51.18756913,-2.274593384,temp
Polesden Lacey,temp,temp,temp,51.25910378,-0.374126416,temp
"Royal Botanic Garden, Edinburgh",temp,temp,temp,55.96534847,-3.20948842,temp
"Royal Botanic Garden, Kew",temp,temp,temp,51.47887711,-0.296345507,temp
Stockeld Park,temp,temp,temp,53.93923361,-1.436057376,temp
Stourhead,temp,temp,temp,51.10699366,-2.31921315,temp
Thursford Museum,temp,temp,temp,52.87160917,0.94048647,temp
Ushaw,temp,temp,temp,54.7871556,-1.660646791,temp
Wakehurst (Kew),temp,temp,temp,51.06930612,-0.086395444,temp
Wisley,temp,temp,temp,51.31361647,-0.473857877,temp
Wollaton Hall,temp,temp,temp,52.95130609,-1.207679938,temp
Waddesdon Manor,temp,temp,temp,51.84303838,-0.937632177,temp
Whitchurch Silk Mill,temp,temp,temp,51.22921617,-1.33838347,temp
Yorkshire Wildlife Park,temp,temp,temp,53.50476949,-1.041847768,temp
Epping Ongar Railway,temp,temp,temp,51.70880984,0.243606356,temp
,,,,,,
Anglesey Abbey,,x,,,,
Dyffrn Gardens,,x,,,,
Ickworth ,,x,,,,
Eltham Palace,,x,,,,
Powis Castle,,x,,,,
Hanbury Hall,,x,,,,
Attingham Park,,x,,,,
Blickling ,,x,,,,
Felbrigg,,x,,,,
Wimpole Estate,,x,,,,
Cotehele,,x,,,,
Dunster Castle,,x,,,,
Castle Drogo,,x,,,,
Buckland Abbey,,x,,,,
Corfe Castle,,x,,,,
Scotney Castle,,x,,,,
Stowe,,x,,,,
Mottisfont,,x,,,,
Nymans,,x,,,,
Speke Hall,,x,,,,
Wallington,,x,,,,
Westonbirt Arboretum,,x,,,,
Castle Howard,,x,,,,
Chester Zoo,,x,,,,
Hopetoun House,,x,,,,
Leonsardslee,,x,,,,
Lincoln Castle,,x,,,,
Audley End,,x,,,,
Hever Castle,,x,,,,
Hylands,,x,,,,
Royal Pavilion Bath,,x,,,,
Wollaton Hall,,x,,,,
Himley Hall,,x,,,,
Castle Howard,,x,,,,
Chiswick House,,x,,,,
Syon Park,,x,,,,
Faskally Wood,,x,,,,
Dean Castle County Park,,x,,,,
Margam ,,x,,,,
Antrim Castle Gardens,,x,,,,
,,,,,,
,,,,,,
Canary Wharf,,x,,,,
Wembley Park Winterfest,,x,,,,
Blackppol,,x,,,,
Great Central Railway,,x,,,,
Epping Ongar Railway,,x,,,,
Stonehenge,,x,,,,
Trelissick ,,x,,,,
,,,,,,
,,,,,,
,,,,,,
,,,,,,
,,,,,,
holly and mistletoe,,,,,,
,,,,,,
Haddon Hall Winter Market ?,,,,,,
Wreath making,,,,,,
,,,,,,
London Lumiere ??,,,,,,
Westminster Abbey,,,,,,
West End,,,,,,
King's Cross,,,,,,
Sout Bank,,,,,,
Waterloo,,,,,,
,,,,,,
greenwich park ,,x ,sparkle in the park fully booked,,,